IRIDIUM 63              
1 25286U 98021B   25133.42110982  .00000464  00000+0  15143-3 0  9994
2 25286  86.3953  96.7172 0002419  84.2489 275.8983 14.36518961418854
IRIDIUM 69              
1 25319U 98026A   25133.47082543  .00000479  00000+0  14302-3 0  9994
2 25319  86.3944 110.0942 0004244 113.4042 246.7604 14.40934725418069
IRIDIUM 71              
1 25320U 98026B   25133.41285649  .00000477  00000+0  14203-3 0  9990
2 25320  86.3942 104.8141 0002467 141.0267 219.1111 14.41129324418588
IRIDIUM 73              
1 25344U 98032C   25133.32156609  .00000687  00000+0  16618-3 0  9991
2 25344  86.4423  61.6212 0002976  91.6370 268.5177 14.51676194425501
IRIDIUM 82              
1 25467U 98051A   25133.46170282  .00026094  00000+0  77568-3 0  9997
2 25467  86.3647 126.7909 0091476  69.6356 291.4690 15.30471181418641
